{
    "links": {
        "self": "http://www.neowsapp.com/rest/v1/neo/3616700?api_key=iIulBulltgU6a56xZRHN4H3l9WmuAYTsLGpBGhQ2"
    },
    "id": "3616700",
    "neo_reference_id": "3616700",
    "name": "(2012 VQ6)",
    "designation": "2012 VQ6",
    "nasa_jpl_url": "http://ssd.jpl.nasa.gov/sbdb.cgi?sstr=3616700",
    "absolute_magnitude_h": 27.0,
    "estimated_diameter": {
        "kilometers": {
            "estimated_diameter_min": 0.0105816886,
            "estimated_diameter_max": 0.023661375
        },
        "meters": {
            "estimated_diameter_min": 10.5816885933,
            "estimated_diameter_max": 23.6613750114
        },
        "miles": {
            "estimated_diameter_min": 0.0065751544,
            "estimated_diameter_max": 0.0147024923
        },
        "feet": {
            "estimated_diameter_min": 34.7168272045,
            "estimated_diameter_max": 77.6291855923
        }
    },
    "is_potentially_hazardous_asteroid": false,
    "close_approach_data": [
        {
            "close_approach_date": "2011-04-13",
            "close_approach_date_full": "2011-Apr-13 01:07",
            "epoch_date_close_approach": 1302656820000,
            "relative_velocity": {
                "kilometers_per_second": "16.556883162",
                "kilometers_per_hour": "59604.7793830535",
                "miles_per_hour": "37036.0919449868"
            },
            "miss_distance": {
                "astronomical": "0.1208263393",
                "lunar": "47.0014459877",
                "kilometers": "18075362.999177291",
                "miles": "11231509.7556609758"
            },
            "orbiting_body": "Earth"
        },
        {
            "close_approach_date": "2012-11-10",
            "close_approach_date_full": "2012-Nov-10 11:36",
            "epoch_date_close_approach": 1352547360000,
            "relative_velocity": {
                "kilometers_per_second": "12.9437004751",
                "kilometers_per_hour": "46597.3217103366",
                "miles_per_hour": "28953.7635927367"
            },
            "miss_distance": {
                "astronomical": "0.0045519432",
                "lunar": "1.7707059048",
                "kilometers": "680961.007080984",
                "miles": "423129.5490222192"
            },
            "orbiting_body": "Earth"
        },
        {
            "close_approach_date": "2012-11-10",
            "close_approach_date_full": "2012-Nov-10 18:54",
            "epoch_date_close_approach": 1352573640000,
            "relative_velocity": {
                "kilometers_per_second": "12.4353070362",
                "kilometers_per_hour": "44767.1053301591",
                "miles_per_hour": "27816.5383091758"
            },
            "miss_distance": {
                "astronomical": "0.0051848767",
                "lunar": "2.0169170363",
                "kilometers": "775646.510532629",
                "miles": "481964.3926591202"
            },
            "orbiting_body": "Moon"
        }
    ],
    "orbital_data": {
        "orbit_id": "6",
        "orbit_determination_date": "2017-04-06 08:48:10",
        "first_observation_date": "2012-11-04",
        "last_observation_date": "2012-11-09",
        "data_arc_in_days": 5,
        "observations_used": 29,
        "orbit_uncertainty": "8",
        "minimum_orbit_intersection": ".00413702",
        "jupiter_tisserand_invariant": "4.385",
        "epoch_osculation": "2456237.5",
        "eccentricity": ".4956329593014818",
        "semi_major_axis": "1.508448630210153",
        "inclination": ".839843127206748",
        "ascending_node_longitude": "211.5163584337411",
        "orbital_period": "676.6969426922388",
        "perihelion_distance": ".7608117716648282",
        "perihelion_argument": "269.137029420021",
        "aphelion_distance": "2.256085488755478",
        "perihelion_time": "2456290.172563750641",
        "mean_anomaly": "331.9784119685986",
        "mean_motion": ".5319959013967759",
        "equinox": "J2000",
        "orbit_class": {
            "orbit_class_type": "APO",
            "orbit_class_description": "Near-Earth asteroid orbits which cross the Earth’s orbit similar to that of 1862 Apollo",
            "orbit_class_range": "a (semi-major axis) > 1.0 AU; q (perihelion) < 1.017 AU"
        }
    },
    "is_sentry_object": false
}